[{"OBJECT_NAME":"STARLINK-32571","OBJECT_ID":"2024-216Z","EPOCH":"2026-03-09T21:33:17.304480","MEAN_MOTION":15.27583043,"ECCENTRICITY":0.00013905,"INCLINATION":43.0016,"RA_OF_ASC_NODE":254.6165,"ARG_OF_PERICENTER":264.9579,"MEAN_ANOMALY":95.1114,"EPHEMERIS_TYPE":0,"CLASSIFICATION_TYPE":"U","NORAD_CAT_ID":62055,"ELEMENT_SET_NO":999,"REV_AT_EPOCH":7401,"BSTAR":0.0009845796,"MEAN_MOTION_DOT":0.00026933,"MEAN_MOTION_DDOT":0},{"OBJECT_NAME":"TRANSPORTER-1 OBJECT Z","OBJECT_ID":"2021-006Z","EPOCH":"2026-03-09T22:55:57.522432","MEAN_MOTION":15.30965056,"ECCENTRICITY":0.00100878,"INCLINATION":97.2377,"RA_OF_ASC_NODE":113.4736,"ARG_OF_PERICENTER":179.6869,"MEAN_ANOMALY":180.438,"EPHEMERIS_TYPE":0,"CLASSIFICATION_TYPE":"U","NORAD_CAT_ID":47436,"ELEMENT_SET_NO":999,"REV_AT_EPOCH":28420,"BSTAR":0.00024088983,"MEAN_MOTION_DOT":7.143e-5,"MEAN_MOTION_DDOT":0}]
